[{"OBJECT_NAME":"UHETSAT","OBJECT_ID":"2023-185E","EPOCH":"2026-03-09T22:39:26.455680","MEAN_MOTION":15.29797662,"ECCENTRICITY":0.00118435,"INCLINATION":97.3584,"RA_OF_ASC_NODE":137.3576,"ARG_OF_PERICENTER":307.7346,"MEAN_ANOMALY":52.2821,"EPHEMERIS_TYPE":0,"CLASSIFICATION_TYPE":"U","NORAD_CAT_ID":58466,"ELEMENT_SET_NO":999,"REV_AT_EPOCH":12611,"BSTAR":0.00030513019,"MEAN_MOTION_DOT":8.749e-5,"MEAN_MOTION_DDOT":0},{"OBJECT_NAME":"STARLINK-35732","OBJECT_ID":"2025-294H","EPOCH":"2026-03-09T09:50:29.031072","MEAN_MOTION":15.27571643,"ECCENTRICITY":0.00012584,"INCLINATION":43.0011,"RA_OF_ASC_NODE":39.8888,"ARG_OF_PERICENTER":340.4225,"MEAN_ANOMALY":19.6578,"EPHEMERIS_TYPE":0,"CLASSIFICATION_TYPE":"U","NORAD_CAT_ID":67037,"ELEMENT_SET_NO":999,"REV_AT_EPOCH":1475,"BSTAR":0.0012356827,"MEAN_MOTION_DOT":0.00033889,"MEAN_MOTION_DDOT":0}]
